[{"OBJECT_NAME":"FLOCK 4BE-27","OBJECT_ID":"2024-149AX","EPOCH":"2026-03-09T18:04:53.053248","MEAN_MOTION":15.32593322,"ECCENTRICITY":0.00027324,"INCLINATION":97.3862,"RA_OF_ASC_NODE":150.6783,"ARG_OF_PERICENTER":305.898,"MEAN_ANOMALY":54.2008,"EPHEMERIS_TYPE":0,"CLASSIFICATION_TYPE":"U","NORAD_CAT_ID":60513,"ELEMENT_SET_NO":999,"REV_AT_EPOCH":8690,"BSTAR":0.00036576028,"MEAN_MOTION_DOT":0.00011439,"MEAN_MOTION_DDOT":0},{"OBJECT_NAME":"STARLINK-34326","OBJECT_ID":"2025-117U","EPOCH":"2026-03-09T22:31:03.839232","MEAN_MOTION":15.30221515,"ECCENTRICITY":0.00021741,"INCLINATION":53.16,"RA_OF_ASC_NODE":38.4582,"ARG_OF_PERICENTER":95.067,"MEAN_ANOMALY":265.0579,"EPHEMERIS_TYPE":0,"CLASSIFICATION_TYPE":"U","NORAD_CAT_ID":64221,"ELEMENT_SET_NO":999,"REV_AT_EPOCH":4459,"BSTAR":0.0012771202,"MEAN_MOTION_DOT":0.00037684,"MEAN_MOTION_DDOT":0}]
